(PUTRA.GCODE)
(T1 D=6. CR=3. - ZMIN=-1. - BALL END MILL)
G0 G90 G94 G17
G21
G53 G0 Z0.

(FACE2)
T1
M3 S5000
G90 G94 G17
G55
M8
G0 X44.61 Y18.303
Z15.
G0 Z5.
G1 Z-0.4 F333.
X44.603 Z-0.494 F1000.
X44.581 Z-0.585
X44.545 Z-0.672
X44.495 Z-0.753
X44.434 Z-0.824
X44.363 Z-0.885
X44.282 Z-0.935
X44.195 Z-0.971
X44.104 Z-0.993
X44.01 Z-1.
X17.99
G2 X17.84 Y18.452 R0.15
X17.99 Y18.602 R0.15
G1 X44.01
G3 X44.16 Y18.752 R0.15
X44.01 Y18.902 R0.15
G1 X17.99
G2 X17.84 Y19.052 R0.15
X17.99 Y19.202 R0.15
G1 X44.01
G3 X44.16 Y19.351 R0.15
X44.01 Y19.501 R0.15
G1 X17.99
G2 X17.84 Y19.651 R0.15
X17.99 Y19.801 R0.15
G1 X44.01
G3 X44.16 Y19.951 R0.15
X44.01 Y20.1 R0.15
G1 X17.99
G2 X17.84 Y20.25 R0.15
X17.99 Y20.4 R0.15
G1 X44.01
G3 X44.16 Y20.55 R0.15
X44.01 Y20.7 R0.15
G1 X17.99
G2 X17.84 Y20.85 R0.15
X17.99 Y20.999 R0.15
G1 X44.01
G3 X44.16 Y21.149 R0.15
X44.01 Y21.299 R0.15
G1 X17.99
G2 X17.84 Y21.449 R0.15
X17.99 Y21.599 R0.15
G1 X44.01
G3 X44.16 Y21.748 R0.15
X44.01 Y21.898 R0.15
G1 X17.99
G2 X17.84 Y22.048 R0.15
X17.99 Y22.198 R0.15
G1 X44.01
G3 X44.16 Y22.348 R0.15
X44.01 Y22.498 R0.15
G1 X17.99
G2 X17.84 Y22.647 R0.15
X17.99 Y22.797 R0.15
G1 X44.01
G3 X44.16 Y22.947 R0.15
X44.01 Y23.097 R0.15
G1 X17.99
G2 X17.84 Y23.247 R0.15
X17.99 Y23.396 R0.15
G1 X44.01
G3 X44.16 Y23.546 R0.15
X44.01 Y23.696 R0.15
G1 X17.99
G2 X17.84 Y23.846 R0.15
X17.99 Y23.996 R0.15
G1 X44.01
G3 X44.16 Y24.146 R0.15
X44.01 Y24.295 R0.15
G1 X17.99
G2 X17.84 Y24.445 R0.15
X17.99 Y24.595 R0.15
G1 X44.01
G3 X44.16 Y24.745 R0.15
X44.01 Y24.895 R0.15
G1 X17.99
G2 X17.84 Y25.045 R0.15
X17.99 Y25.194 R0.15
G1 X44.01
G3 X44.16 Y25.344 R0.15
X44.01 Y25.494 R0.15
G1 X17.99
G2 X17.84 Y25.644 R0.15
X17.99 Y25.794 R0.15
G1 X44.01
G3 X44.16 Y25.943 R0.15
X44.01 Y26.093 R0.15
G1 X17.99
G2 X17.84 Y26.243 R0.15
X17.99 Y26.393 R0.15
G1 X44.01
G3 X44.16 Y26.543 R0.15
X44.01 Y26.693 R0.15
G1 X17.99
G2 X17.84 Y26.842 R0.15
X17.99 Y26.992 R0.15
G1 X44.01
G3 X44.16 Y27.142 R0.15
X44.01 Y27.292 R0.15
G1 X17.99
G2 X17.84 Y27.442 R0.15
X17.99 Y27.591 R0.15
G1 X44.01
G3 X44.16 Y27.741 R0.15
X44.01 Y27.891 R0.15
G1 X17.99
G2 X17.84 Y28.041 R0.15
X17.99 Y28.191 R0.15
G1 X44.01
G3 X44.16 Y28.341 R0.15
X44.01 Y28.49 R0.15
G1 X17.99
G2 X17.84 Y28.64 R0.15
X17.99 Y28.79 R0.15
G1 X44.01
G3 X44.16 Y28.94 R0.15
X44.01 Y29.09 R0.15
G1 X17.99
G2 X17.84 Y29.239 R0.15
X17.99 Y29.389 R0.15
G1 X44.01
G3 X44.16 Y29.539 R0.15
X44.01 Y29.689 R0.15
G1 X17.99
G2 X17.84 Y29.839 R0.15
X17.99 Y29.989 R0.15
G1 X44.01
G3 X44.16 Y30.138 R0.15
X44.01 Y30.288 R0.15
G1 X17.99
G2 X17.84 Y30.438 R0.15
X17.99 Y30.588 R0.15
G1 X44.01
G3 X44.16 Y30.738 R0.15
X44.01 Y30.887 R0.15
G1 X17.99
G2 X17.84 Y31.037 R0.15
X17.99 Y31.187 R0.15
G1 X44.01
G3 X44.16 Y31.337 R0.15
X44.01 Y31.487 R0.15
G1 X17.99
G2 X17.84 Y31.637 R0.15
X17.99 Y31.786 R0.15
G1 X44.01
G3 X44.16 Y31.936 R0.15
X44.01 Y32.086 R0.15
G1 X17.99
G2 X17.84 Y32.236 R0.15
X17.99 Y32.386 R0.15
G1 X44.01
G3 X44.16 Y32.535 R0.15
X44.01 Y32.685 R0.15
G1 X17.99
G2 X17.84 Y32.835 R0.15
X17.99 Y32.985 R0.15
G1 X44.01
G3 X44.16 Y33.135 R0.15
X44.01 Y33.285 R0.15
G1 X17.99
G2 X17.84 Y33.434 R0.15
X17.99 Y33.584 R0.15
G1 X44.01
G3 X44.16 Y33.734 R0.15
X44.01 Y33.884 R0.15
G1 X17.99
G2 X17.84 Y34.034 R0.15
X17.99 Y34.183 R0.15
G1 X44.01
G3 X44.16 Y34.333 R0.15
X44.01 Y34.483 R0.15
G1 X17.99
G2 X17.84 Y34.633 R0.15
X17.99 Y34.783 R0.15
G1 X44.01
G3 X44.16 Y34.933 R0.15
X44.01 Y35.082 R0.15
G1 X17.99
G2 X17.84 Y35.232 R0.15
X17.99 Y35.382 R0.15
G1 X44.01
G3 X44.16 Y35.532 R0.15
X44.01 Y35.682 R0.15
G1 X17.99
G2 X17.84 Y35.831 R0.15
X17.99 Y35.981 R0.15
G1 X44.01
G3 X44.16 Y36.131 R0.15
X44.01 Y36.281 R0.15
G1 X17.99
G2 X17.84 Y36.431 R0.15
X17.99 Y36.581 R0.15
G1 X44.01
G3 X44.16 Y36.73 R0.15
X44.01 Y36.88 R0.15
G1 X17.99
G2 X17.84 Y37.03 R0.15
X17.99 Y37.18 R0.15
G1 X44.01
G3 X44.16 Y37.33 R0.15
X44.01 Y37.48 R0.15
G1 X17.99
G2 X17.84 Y37.629 R0.15
X17.99 Y37.779 R0.15
G1 X44.01
G3 X44.16 Y37.929 R0.15
X44.01 Y38.079 R0.15
G1 X17.99
G2 X17.84 Y38.229 R0.15
X17.99 Y38.378 R0.15
G1 X44.01
G3 X44.16 Y38.528 R0.15
X44.01 Y38.678 R0.15
G1 X17.99
G2 X17.84 Y38.828 R0.15
X17.99 Y38.978 R0.15
G1 X44.01
G3 X44.16 Y39.128 R0.15
X44.01 Y39.277 R0.15
G1 X17.99
G2 X17.84 Y39.427 R0.15
X17.99 Y39.577 R0.15
G1 X44.01
G3 X44.16 Y39.727 R0.15
X44.01 Y39.877 R0.15
G1 X17.99
G2 X17.84 Y40.026 R0.15
X17.99 Y40.176 R0.15
G1 X44.01
G3 X44.16 Y40.326 R0.15
X44.01 Y40.476 R0.15
G1 X17.99
G2 X17.84 Y40.626 R0.15
X17.99 Y40.776 R0.15
G1 X44.01
G3 X44.16 Y40.925 R0.15
X44.01 Y41.075 R0.15
G1 X17.99
G2 X17.84 Y41.225 R0.15
X17.99 Y41.375 R0.15
G1 X44.01
G3 X44.16 Y41.525 R0.15
X44.01 Y41.674 R0.15
G1 X17.99
G2 X17.84 Y41.824 R0.15
X17.99 Y41.974 R0.15
G1 X44.01
G3 X44.16 Y42.124 R0.15
X44.01 Y42.274 R0.15
G1 X17.99
G2 X17.84 Y42.424 R0.15
X17.99 Y42.573 R0.15
G1 X44.01
G3 X44.16 Y42.723 R0.15
X44.01 Y42.873 R0.15
G1 X17.99
G2 X17.84 Y43.023 R0.15
X17.99 Y43.173 R0.15
G1 X44.01
G3 X44.16 Y43.322 R0.15
X44.01 Y43.472 R0.15
G1 X17.99
G2 X17.84 Y43.622 R0.15
X17.99 Y43.772 R0.15
G1 X44.01
X44.104 Z-0.993
X44.195 Z-0.971
X44.282 Z-0.935
X44.363 Z-0.885
X44.434 Z-0.824
X44.495 Z-0.753
X44.545 Z-0.672
X44.581 Z-0.585
X44.603 Z-0.494
X44.61 Z-0.4
G0 Z5.
X47.39 Y48.267
G1 Z-0.4 F333.
X47.397 Z-0.494 F1000.
X47.419 Z-0.585
X47.455 Z-0.672
X47.505 Z-0.753
X47.566 Z-0.824
X47.637 Z-0.885
X47.718 Z-0.935
X47.805 Z-0.971
X47.896 Z-0.993
X47.99 Z-1.
X70.849
G3 X70.999 Y48.416 R0.15
X70.849 Y48.566 R0.15
G1 X47.99
G2 X47.84 Y48.716 R0.15
X47.99 Y48.866 R0.15
G1 X70.849
G3 X70.999 Y49.016 R0.15
X70.849 Y49.165 R0.15
G1 X47.99
G2 X47.84 Y49.315 R0.15
X47.99 Y49.465 R0.15
G1 X70.849
G3 X70.999 Y49.615 R0.15
X70.849 Y49.765 R0.15
G1 X47.99
G2 X47.84 Y49.915 R0.15
X47.99 Y50.064 R0.15
G1 X70.849
G3 X70.999 Y50.214 R0.15
X70.849 Y50.364 R0.15
G1 X47.99
G2 X47.84 Y50.514 R0.15
X47.99 Y50.664 R0.15
G1 X70.849
G3 X70.999 Y50.813 R0.15
X70.849 Y50.963 R0.15
G1 X47.99
G2 X47.84 Y51.113 R0.15
X47.99 Y51.263 R0.15
G1 X70.849
G3 X70.999 Y51.413 R0.15
X70.849 Y51.563 R0.15
G1 X47.99
G2 X47.84 Y51.712 R0.15
X47.99 Y51.862 R0.15
G1 X70.849
G3 X70.999 Y52.012 R0.15
X70.849 Y52.162 R0.15
G1 X47.99
G2 X47.84 Y52.312 R0.15
X47.99 Y52.461 R0.15
G1 X70.849
G3 X70.999 Y52.611 R0.15
X70.849 Y52.761 R0.15
G1 X47.99
G2 X47.84 Y52.911 R0.15
X47.99 Y53.061 R0.15
G1 X70.849
G3 X70.999 Y53.211 R0.15
X70.849 Y53.36 R0.15
G1 X47.99
G2 X47.84 Y53.51 R0.15
X47.99 Y53.66 R0.15
G1 X70.849
G3 X70.999 Y53.81 R0.15
X70.849 Y53.96 R0.15
G1 X47.99
G2 X47.84 Y54.109 R0.15
X47.99 Y54.259 R0.15
G1 X70.849
G3 X70.999 Y54.409 R0.15
X70.849 Y54.559 R0.15
G1 X47.99
G2 X47.84 Y54.709 R0.15
X47.99 Y54.859 R0.15
G1 X70.849
G3 X70.999 Y55.008 R0.15
X70.849 Y55.158 R0.15
G1 X47.99
G2 X47.84 Y55.308 R0.15
X47.99 Y55.458 R0.15
G1 X70.849
G3 X70.999 Y55.608 R0.15
X70.849 Y55.757 R0.15
G1 X47.99
G2 X47.84 Y55.907 R0.15
X47.99 Y56.057 R0.15
G1 X70.849
G3 X70.999 Y56.207 R0.15
X70.849 Y56.357 R0.15
G1 X47.99
G2 X47.84 Y56.507 R0.15
X47.99 Y56.656 R0.15
G1 X70.849
G3 X70.999 Y56.806 R0.15
X70.849 Y56.956 R0.15
G1 X47.99
G2 X47.84 Y57.106 R0.15
X47.99 Y57.256 R0.15
G1 X70.849
G3 X70.999 Y57.405 R0.15
X70.849 Y57.555 R0.15
G1 X47.99
G2 X47.84 Y57.705 R0.15
X47.99 Y57.855 R0.15
G1 X70.849
G3 X70.999 Y58.005 R0.15
X70.849 Y58.155 R0.15
G1 X47.99
G2 X47.84 Y58.304 R0.15
X47.99 Y58.454 R0.15
G1 X70.849
G3 X70.999 Y58.604 R0.15
X70.849 Y58.754 R0.15
G1 X47.99
G2 X47.84 Y58.904 R0.15
X47.99 Y59.053 R0.15
G1 X70.849
G3 X70.999 Y59.203 R0.15
X70.849 Y59.353 R0.15
G1 X47.99
G2 X47.84 Y59.503 R0.15
X47.99 Y59.653 R0.15
G1 X70.849
G3 X70.999 Y59.803 R0.15
X70.849 Y59.952 R0.15
G1 X47.99
G2 X47.84 Y60.102 R0.15
X47.99 Y60.252 R0.15
G1 X70.849
G3 X70.999 Y60.402 R0.15
X70.849 Y60.552 R0.15
G1 X47.99
G2 X47.84 Y60.702 R0.15
X47.99 Y60.851 R0.15
G1 X70.849
G3 X70.999 Y61.001 R0.15
X70.849 Y61.151 R0.15
G1 X47.99
G2 X47.84 Y61.301 R0.15
X47.99 Y61.451 R0.15
G1 X70.849
G3 X70.999 Y61.6 R0.15
X70.849 Y61.75 R0.15
G1 X47.99
G2 X47.84 Y61.9 R0.15
X47.99 Y62.05 R0.15
G1 X70.849
G3 X70.999 Y62.2 R0.15
X70.849 Y62.35 R0.15
G1 X47.99
G2 X47.84 Y62.499 R0.15
X47.99 Y62.649 R0.15
G1 X70.849
G3 X70.999 Y62.799 R0.15
X70.849 Y62.949 R0.15
G1 X47.99
G2 X47.84 Y63.099 R0.15
X47.99 Y63.248 R0.15
G1 X70.849
X70.943 Z-0.993
X71.035 Z-0.971
X71.122 Z-0.935
X71.202 Z-0.885
X71.273 Z-0.824
X71.335 Z-0.753
X71.384 Z-0.672
X71.42 Z-0.585
X71.442 Z-0.494
X71.449 Z-0.4
G0 Z5.
X27.113 Y67.722
G1 Z-0.4 F333.
X27.106 Z-0.494 F1000.
X27.084 Z-0.585
X27.048 Z-0.672
X26.999 Z-0.753
X26.937 Z-0.824
X26.866 Z-0.885
X26.786 Z-0.935
X26.699 Z-0.971
X26.607 Z-0.993
X26.513 Z-1.
X15.487
X14.493
G2 X14.344 Y67.871 R0.149
X14.493 Y68.02 R0.149
G1 X27.507
X28.269
G3 X28.418 Y68.169 R0.149
X28.269 Y68.318 R0.149
G1 X13.731
X13.106
G2 X12.957 Y68.467 R0.149
X13.106 Y68.617 R0.149
G1 X28.894
X29.427
G3 X29.576 Y68.766 R0.149
X29.427 Y68.915 R0.149
G1 X12.573
X12.104
G2 X11.955 Y69.064 R0.149
X12.104 Y69.213 R0.149
G1 X29.896
X30.316
G3 X30.465 Y69.362 R0.149
X30.316 Y69.511 R0.149
G1 X11.684
X11.3
G2 X11.151 Y69.661 R0.149
X11.3 Y69.81 R0.149
G1 X30.7
X31.054
G3 X31.203 Y69.959 R0.149
X31.054 Y70.108 R0.149
G1 X10.946
X10.629
G2 X10.48 Y70.257 R0.149
X10.629 Y70.406 R0.149
G1 X31.371
X31.665
G3 X31.814 Y70.555 R0.149
X31.665 Y70.704 R0.149
G1 X10.335
X10.056
G2 X9.907 Y70.854 R0.149
X10.056 Y71.003 R0.149
G1 X31.944
X32.192
G3 X32.342 Y71.152 R0.149
X32.192 Y71.301 R0.149
G1 X9.808
X9.571
G2 X9.422 Y71.45 R0.149
X9.571 Y71.599 R0.149
G1 X32.429
X32.648
G3 X32.798 Y71.748 R0.149
X32.648 Y71.897 R0.149
G1 X9.352
X9.15
G2 X9.001 Y72.047 R0.149
X9.15 Y72.196 R0.149
G1 X32.85
X33.042
G3 X33.192 Y72.345 R0.149
X33.042 Y72.494 R0.149
G1 X8.958
X8.787
G2 X8.638 Y72.643 R0.149
X8.787 Y72.792 R0.149
G1 X33.213
X33.381
G3 X33.53 Y72.941 R0.149
X33.381 Y73.09 R0.149
G1 X8.619
X8.474
G2 X8.325 Y73.24 R0.149
X8.474 Y73.389 R0.149
G1 X33.526
X33.669
G3 X33.818 Y73.538 R0.149
X33.669 Y73.687 R0.149
G1 X8.331
X8.207
G2 X8.058 Y73.836 R0.149
X8.207 Y73.985 R0.149
G1 X33.793
X33.914
G3 X34.063 Y74.134 R0.149
X33.914 Y74.284 R0.149
G1 X8.086
X7.983
G2 X7.834 Y74.433 R0.149
X7.983 Y74.582 R0.149
G1 X34.017
X34.118
G3 X34.267 Y74.731 R0.149
X34.118 Y74.88 R0.149
G1 X7.882
X7.799
G2 X7.65 Y75.029 R0.149
X7.799 Y75.178 R0.149
G1 X34.201
X34.284
G3 X34.433 Y75.327 R0.149
X34.284 Y75.477 R0.149
G1 X7.716
X7.652
G2 X7.503 Y75.626 R0.149
X7.652 Y75.775 R0.149
G1 X34.348
X34.412
G3 X34.561 Y75.924 R0.149
X34.412 Y76.073 R0.149
G1 X7.588
X7.542
G2 X7.392 Y76.222 R0.149
X7.542 Y76.371 R0.149
G1 X34.458
X34.504
G3 X34.653 Y76.52 R0.149
X34.504 Y76.67 R0.149
G1 X7.496
X7.466
G2 X7.317 Y76.819 R0.149
X7.466 Y76.968 R0.149
G1 X34.534
X34.561
G3 X34.711 Y77.117 R0.149
X34.561 Y77.266 R0.149
G1 X7.439
X7.424
G2 X7.275 Y77.415 R0.149
X7.424 Y77.564 R0.149
G1 X34.576
X34.585
G3 X34.734 Y77.713 R0.149
X34.585 Y77.863 R0.149
G1 X7.415
X7.411
G2 X7.261 Y78.012 R0.149
X7.411 Y78.161 R0.149
G1 X34.589
G3 X34.739 Y78.31 R0.149
X34.589 Y78.459 R0.149
G1 X7.411
G2 X7.261 Y78.608 R0.149
X7.411 Y78.757 R0.149
G1 X34.589
G3 X34.739 Y78.906 R0.149
X34.589 Y79.056 R0.149
G1 X7.411
G2 X7.261 Y79.205 R0.149
X7.411 Y79.354 R0.149
G1 X34.589
G3 X34.739 Y79.503 R0.149
X34.589 Y79.652 R0.149
G1 X7.411
G2 X7.261 Y79.801 R0.149
X7.411 Y79.95 R0.149
G1 X34.589
G3 X34.739 Y80.1 R0.149
X34.589 Y80.249 R0.149
G1 X7.411
G2 X7.261 Y80.398 R0.149
X7.411 Y80.547 R0.149
G1 X34.589
G3 X34.739 Y80.696 R0.149
X34.589 Y80.845 R0.149
G1 X7.411
G2 X7.261 Y80.994 R0.149
X7.411 Y81.143 R0.149
G1 X34.589
G3 X34.739 Y81.293 R0.149
X34.589 Y81.442 R0.149
G1 X7.411
G2 X7.261 Y81.591 R0.149
X7.411 Y81.74 R0.149
G1 X34.589
G3 X34.739 Y81.889 R0.149
X34.589 Y82.038 R0.149
G1 X7.411
G2 X7.261 Y82.187 R0.149
X7.411 Y82.336 R0.149
G1 X34.589
G3 X34.739 Y82.486 R0.149
X34.589 Y82.635 R0.149
G1 X7.411
G2 X7.261 Y82.784 R0.149
X7.411 Y82.933 R0.149
G1 X34.589
G3 X34.739 Y83.082 R0.149
X34.589 Y83.231 R0.149
G1 X7.411
G2 X7.261 Y83.38 R0.149
X7.411 Y83.529 R0.149
G1 X34.589
G3 X34.739 Y83.679 R0.149
X34.589 Y83.828 R0.149
G1 X7.411
G2 X7.261 Y83.977 R0.149
X7.411 Y84.126 R0.149
G1 X7.414
X34.586
G3 X34.735 Y84.275 R0.149
X34.586 Y84.424 R0.149
G1 X34.577
X7.423
G2 X7.274 Y84.573 R0.149
X7.423 Y84.723 R0.149
G1 X7.437
X34.563
G3 X34.712 Y84.872 R0.149
X34.563 Y85.021 R0.149
G1 X34.535
X7.465
G2 X7.315 Y85.17 R0.149
X7.465 Y85.319 R0.149
G1 X7.494
X34.506
G3 X34.655 Y85.468 R0.149
X34.506 Y85.617 R0.149
G1 X34.46
X7.54
G2 X7.391 Y85.766 R0.149
X7.54 Y85.916 R0.149
G1 X7.586
X34.414
G3 X34.563 Y86.065 R0.149
X34.414 Y86.214 R0.149
G1 X34.35
X7.65
G2 X7.501 Y86.363 R0.149
X7.65 Y86.512 R0.149
G1 X7.714
X34.286
G3 X34.435 Y86.661 R0.149
X34.286 Y86.81 R0.149
G1 X34.204
X7.796
G2 X7.647 Y86.959 R0.149
X7.796 Y87.109 R0.149
G1 X7.879
X34.121
G3 X34.27 Y87.258 R0.149
X34.121 Y87.407 R0.149
G1 X34.021
X7.979
G2 X7.83 Y87.556 R0.149
X7.979 Y87.705 R0.149
G1 X8.082
X33.918
G3 X34.067 Y87.854 R0.149
X33.918 Y88.003 R0.149
G1 X33.798
X8.202
G2 X8.053 Y88.152 R0.149
X8.202 Y88.302 R0.149
G1 X8.326
X33.674
G3 X33.823 Y88.451 R0.149
X33.674 Y88.6 R0.149
G1 X33.532
X8.468
G2 X8.319 Y88.749 R0.149
X8.468 Y88.898 R0.149
G1 X8.613
X33.387
G3 X33.536 Y89.047 R0.149
X33.387 Y89.196 R0.149
G1 X33.22
X8.78
G2 X8.631 Y89.345 R0.149
X8.78 Y89.495 R0.149
G1 X8.95
X33.05
G3 X33.199 Y89.644 R0.149
X33.05 Y89.793 R0.149
G1 X32.857
X9.143
G2 X8.994 Y89.942 R0.149
X9.143 Y90.091 R0.149
G1 X9.343
X32.657
G3 X32.806 Y90.24 R0.149
X32.657 Y90.389 R0.149
G1 X32.437
X9.563
G2 X9.413 Y90.539 R0.149
X9.563 Y90.688 R0.149
G1 X9.798
X32.202
G3 X32.351 Y90.837 R0.149
X32.202 Y90.986 R0.149
G1 X31.953
X10.047
G2 X9.897 Y91.135 R0.149
X10.047 Y91.284 R0.149
G1 X10.324
X31.676
G3 X31.825 Y91.433 R0.149
X31.676 Y91.582 R0.149
G1 X31.383
X10.617
X10.523 Z-0.993
X10.432 Z-0.971
X10.345 Z-0.935
X10.265 Z-0.885
X10.193 Z-0.824
X10.132 Z-0.753
X10.083 Z-0.672
X10.047 Z-0.585
X10.025 Z-0.494
X10.017 Z-0.4
G0 Z15.

M9
G53 G0 Z0.
M30
